[{"OBJECT_NAME":"ONEWEB-0125","OBJECT_ID":"2020-100P","EPOCH":"2025-10-16T01:29:43.152000","MEAN_MOTION":13.12443456,"ECCENTRICITY":0.0001572,"INCLINATION":87.8964,"RA_OF_ASC_NODE":39.1427,"ARG_OF_PERICENTER":92.4129,"MEAN_ANOMALY":267.718,"EPHEMERIS_TYPE":0,"CLASSIFICATION_TYPE":"U","NORAD_CAT_ID":47271,"ELEMENT_SET_NO":999,"REV_AT_EPOCH":23261,"BSTAR":0.00141,"MEAN_MOTION_DOT":5.2e-6,"MEAN_MOTION_DDOT":0},{"OBJECT_NAME":"ONEWEB-0126","OBJECT_ID":"2020-100Q","EPOCH":"2025-10-16T00:10:31.270368","MEAN_MOTION":13.12440956,"ECCENTRICITY":0.0001836,"INCLINATION":87.8963,"RA_OF_ASC_NODE":39.1768,"ARG_OF_PERICENTER":100.1164,"MEAN_ANOMALY":260.0172,"EPHEMERIS_TYPE":0,"CLASSIFICATION_TYPE":"U","NORAD_CAT_ID":47272,"ELEMENT_SET_NO":999,"REV_AT_EPOCH":23267,"BSTAR":0.00036619,"MEAN_MOTION_DOT":1.44e-6,"MEAN_MOTION_DDOT":0},{"OBJECT_NAME":"ONEWEB-0127","OBJECT_ID":"2020-100R","EPOCH":"2025-10-16T01:11:01.890816","MEAN_MOTION":13.12444817,"ECCENTRICITY":0.0001877,"INCLINATION":87.8961,"RA_OF_ASC_NODE":39.1793,"ARG_OF_PERICENTER":102.5383,"MEAN_ANOMALY":257.5956,"EPHEMERIS_TYPE":0,"CLASSIFICATION_TYPE":"U","NORAD_CAT_ID":47273,"ELEMENT_SET_NO":999,"REV_AT_EPOCH":23270,"BSTAR":-0.00031727,"MEAN_MOTION_DOT":-1.01e-6,"MEAN_MOTION_DDOT":0},{"OBJECT_NAME":"ONEWEB-0128","OBJECT_ID":"2020-100S","EPOCH":"2025-10-16T01:43:44.420160","MEAN_MOTION":13.12442284,"ECCENTRICITY":0.0001847,"INCLINATION":87.8952,"RA_OF_ASC_NODE":39.1965,"ARG_OF_PERICENTER":109.591,"MEAN_ANOMALY":250.5418,"EPHEMERIS_TYPE":0,"CLASSIFICATION_TYPE":"U","NORAD_CAT_ID":47274,"ELEMENT_SET_NO":999,"REV_AT_EPOCH":23272,"BSTAR":0.0014472,"MEAN_MOTION_DOT":5.33e-6,"MEAN_MOTION_DDOT":0},{"OBJECT_NAME":"ONEWEB-0129","OBJECT_ID":"2020-100T","EPOCH":"2025-10-16T01:13:22.378944","MEAN_MOTION":13.12445108,"ECCENTRICITY":0.0002922,"INCLINATION":87.8961,"RA_OF_ASC_NODE":39.1478,"ARG_OF_PERICENTER":100.1775,"MEAN_ANOMALY":259.9683,"EPHEMERIS_TYPE":0,"CLASSIFICATION_TYPE":"U","NORAD_CAT_ID":47275,"ELEMENT_SET_NO":999,"REV_AT_EPOCH":23265,"BSTAR":2.748e-5,"MEAN_MOTION_DOT":2.3e-7,"MEAN_MOTION_DDOT":0},{"OBJECT_NAME":"ONEWEB-0130","OBJECT_ID":"2020-100U","EPOCH":"2025-10-16T00:03:18.587808","MEAN_MOTION":13.12442024,"ECCENTRICITY":0.0001867,"INCLINATION":87.8964,"RA_OF_ASC_NODE":39.154,"ARG_OF_PERICENTER":104.639,"MEAN_ANOMALY":255.4945,"EPHEMERIS_TYPE":0,"CLASSIFICATION_TYPE":"U","NORAD_CAT_ID":47276,"ELEMENT_SET_NO":999,"REV_AT_EPOCH":23261,"BSTAR":0.00028929,"MEAN_MOTION_DOT":1.17e-6,"MEAN_MOTION_DDOT":0},{"OBJECT_NAME":"ONEWEB-0131","OBJECT_ID":"2020-100V","EPOCH":"2025-10-15T07:30:36.376992","MEAN_MOTION":13.12442511,"ECCENTRICITY":0.00017453,"INCLINATION":87.8961,"RA_OF_ASC_NODE":39.3208,"ARG_OF_PERICENTER":103.595,"MEAN_ANOMALY":256.5373,"EPHEMERIS_TYPE":0,"CLASSIFICATION_TYPE":"U","NORAD_CAT_ID":47277,"ELEMENT_SET_NO":999,"REV_AT_EPOCH":23256,"BSTAR":0.00099479377,"MEAN_MOTION_DOT":3.71e-6,"MEAN_MOTION_DDOT":0},{"OBJECT_NAME":"ONEWEB-0132","OBJECT_ID":"2020-100W","EPOCH":"2025-10-16T00:40:40.280736","MEAN_MOTION":13.12443481,"ECCENTRICITY":0.0001692,"INCLINATION":87.8961,"RA_OF_ASC_NODE":39.1806,"ARG_OF_PERICENTER":101.8542,"MEAN_ANOMALY":258.2776,"EPHEMERIS_TYPE":0,"CLASSIFICATION_TYPE":"U","NORAD_CAT_ID":47278,"ELEMENT_SET_NO":999,"REV_AT_EPOCH":23255,"BSTAR":-0.0010752,"MEAN_MOTION_DOT":-3.74e-6,"MEAN_MOTION_DDOT":0},{"OBJECT_NAME":"ONEWEB-0133","OBJECT_ID":"2020-100X","EPOCH":"2025-10-16T01:03:50.014368","MEAN_MOTION":13.12444246,"ECCENTRICITY":0.0001671,"INCLINATION":87.8951,"RA_OF_ASC_NODE":39.1429,"ARG_OF_PERICENTER":106.6172,"MEAN_ANOMALY":253.514,"EPHEMERIS_TYPE":0,"CLASSIFICATION_TYPE":"U","NORAD_CAT_ID":47279,"ELEMENT_SET_NO":999,"REV_AT_EPOCH":23271,"BSTAR":-0.00034877,"MEAN_MOTION_DOT":-1.13e-6,"MEAN_MOTION_DDOT":0},{"OBJECT_NAME":"ONEWEB-0134","OBJECT_ID":"2020-100Y","EPOCH":"2025-10-16T00:19:39.080064","MEAN_MOTION":13.12441984,"ECCENTRICITY":0.0001876,"INCLINATION":87.8961,"RA_OF_ASC_NODE":39.1402,"ARG_OF_PERICENTER":108.0112,"MEAN_ANOMALY":252.1221,"EPHEMERIS_TYPE":0,"CLASSIFICATION_TYPE":"U","NORAD_CAT_ID":47280,"ELEMENT_SET_NO":999,"REV_AT_EPOCH":23268,"BSTAR":-0.0002289,"MEAN_MOTION_DOT":-7.0e-7,"MEAN_MOTION_DDOT":0},{"OBJECT_NAME":"ONEWEB-0135","OBJECT_ID":"2020-100Z","EPOCH":"2025-10-16T01:27:24.251040","MEAN_MOTION":13.12442969,"ECCENTRICITY":0.0001921,"INCLINATION":87.896,"RA_OF_ASC_NODE":39.171,"ARG_OF_PERICENTER":114.0547,"MEAN_ANOMALY":246.0783,"EPHEMERIS_TYPE":0,"CLASSIFICATION_TYPE":"U","NORAD_CAT_ID":47281,"ELEMENT_SET_NO":999,"REV_AT_EPOCH":23271,"BSTAR":0.0010164,"MEAN_MOTION_DOT":3.78e-6,"MEAN_MOTION_DDOT":0},{"OBJECT_NAME":"ONEWEB-0136","OBJECT_ID":"2020-100AA","EPOCH":"2025-10-16T00:05:38.973120","MEAN_MOTION":13.12442816,"ECCENTRICITY":0.0002231,"INCLINATION":87.897,"RA_OF_ASC_NODE":39.1512,"ARG_OF_PERICENTER":109.9697,"MEAN_ANOMALY":250.1672,"EPHEMERIS_TYPE":0,"CLASSIFICATION_TYPE":"U","NORAD_CAT_ID":47282,"ELEMENT_SET_NO":999,"REV_AT_EPOCH":23263,"BSTAR":0.00054935,"MEAN_MOTION_DOT":2.1e-6,"MEAN_MOTION_DDOT":0},{"OBJECT_NAME":"ONEWEB-0137","OBJECT_ID":"2020-100AB","EPOCH":"2025-10-16T00:54:40.722912","MEAN_MOTION":13.12444632,"ECCENTRICITY":0.000182,"INCLINATION":87.8962,"RA_OF_ASC_NODE":39.15,"ARG_OF_PERICENTER":95.284,"MEAN_ANOMALY":264.8497,"EPHEMERIS_TYPE":0,"CLASSIFICATION_TYPE":"U","NORAD_CAT_ID":47283,"ELEMENT_SET_NO":999,"REV_AT_EPOCH":23254,"BSTAR":-0.0009961,"MEAN_MOTION_DOT":-3.46e-6,"MEAN_MOTION_DDOT":0},{"OBJECT_NAME":"ONEWEB-0138","OBJECT_ID":"2020-100AC","EPOCH":"2025-10-15T18:54:58.618080","MEAN_MOTION":13.12441255,"ECCENTRICITY":0.00018798,"INCLINATION":87.8961,"RA_OF_ASC_NODE":39.2094,"ARG_OF_PERICENTER":104.9828,"MEAN_ANOMALY":255.1509,"EPHEMERIS_TYPE":0,"CLASSIFICATION_TYPE":"U","NORAD_CAT_ID":47284,"ELEMENT_SET_NO":999,"REV_AT_EPOCH":23259,"BSTAR":-0.00064546154,"MEAN_MOTION_DOT":-2.19e-6,"MEAN_MOTION_DDOT":0},{"OBJECT_NAME":"ONEWEB-0139","OBJECT_ID":"2020-100AD","EPOCH":"2025-10-15T18:01:27.617376","MEAN_MOTION":13.12445721,"ECCENTRICITY":0.00017331,"INCLINATION":87.8956,"RA_OF_ASC_NODE":39.2069,"ARG_OF_PERICENTER":101.6685,"MEAN_ANOMALY":258.4638,"EPHEMERIS_TYPE":0,"CLASSIFICATION_TYPE":"U","NORAD_CAT_ID":47285,"ELEMENT_SET_NO":999,"REV_AT_EPOCH":23266,"BSTAR":0.00041704679,"MEAN_MOTION_DOT":1.63e-6,"MEAN_MOTION_DDOT":0},{"OBJECT_NAME":"ONEWEB-0140","OBJECT_ID":"2020-100AE","EPOCH":"2025-10-16T00:14:59.170848","MEAN_MOTION":13.12441646,"ECCENTRICITY":0.0001826,"INCLINATION":87.8962,"RA_OF_ASC_NODE":39.1409,"ARG_OF_PERICENTER":103.9538,"MEAN_ANOMALY":256.1794,"EPHEMERIS_TYPE":0,"CLASSIFICATION_TYPE":"U","NORAD_CAT_ID":47286,"ELEMENT_SET_NO":999,"REV_AT_EPOCH":23266,"BSTAR":6.2027e-6,"MEAN_MOTION_DOT":1.5e-7,"MEAN_MOTION_DDOT":0},{"OBJECT_NAME":"ONEWEB-0141","OBJECT_ID":"2020-100AF","EPOCH":"2025-10-15T14:21:27.275040","MEAN_MOTION":13.12473886,"ECCENTRICITY":0.0002146,"INCLINATION":87.8948,"RA_OF_ASC_NODE":39.2358,"ARG_OF_PERICENTER":87.2,"MEAN_ANOMALY":272.9374,"EPHEMERIS_TYPE":0,"CLASSIFICATION_TYPE":"U","NORAD_CAT_ID":47287,"ELEMENT_SET_NO":999,"REV_AT_EPOCH":23259,"BSTAR":0.001172,"MEAN_MOTION_DOT":4.35e-6,"MEAN_MOTION_DDOT":0}]
