ONEWEB-0125             
1 47271U 20100P   25289.06230500  .00000520  00000+0  14100-2 0  9990
2 47271  87.8964  39.1427 0001572  92.4129 267.7180 13.12443456232611
ONEWEB-0126             
1 47272U 20100Q   25289.00730637  .00000144  00000+0  36619-3 0  9993
2 47272  87.8963  39.1768 0001836 100.1164 260.0172 13.12440956232673
ONEWEB-0127             
1 47273U 20100R   25289.04932744 -.00000101  00000+0 -31727-3 0  9991
2 47273  87.8961  39.1793 0001877 102.5383 257.5956 13.12444817232709
ONEWEB-0128             
1 47274U 20100S   25289.07204190  .00000533  00000+0  14472-2 0  9996
2 47274  87.8952  39.1965 0001847 109.5910 250.5418 13.12442284232725
ONEWEB-0129             
1 47275U 20100T   25289.05095346  .00000023  00000+0  27480-4 0  9995
2 47275  87.8961  39.1478 0002922 100.1775 259.9683 13.12445108232653
ONEWEB-0130             
1 47276U 20100U   25289.00229847  .00000117  00000+0  28929-3 0  9998
2 47276  87.8964  39.1540 0001867 104.6390 255.4945 13.12442024232618
ONEWEB-0131             
1 47277U 20100V   25288.31292103  .00000371  00000+0  99479-3 0  9997
2 47277  87.8961  39.3208 0001745 103.5950 256.5373 13.12442511232566
ONEWEB-0132             
1 47278U 20100W   25289.02824399 -.00000374  00000+0 -10752-2 0  9996
2 47278  87.8961  39.1806 0001692 101.8542 258.2776 13.12443481232550
ONEWEB-0133             
1 47279U 20100X   25289.04432887 -.00000113  00000+0 -34877-3 0  9992
2 47279  87.8951  39.1429 0001671 106.6172 253.5140 13.12444246232711
ONEWEB-0134             
1 47280U 20100Y   25289.01364676 -.00000070  00000+0 -22890-3 0  9995
2 47280  87.8961  39.1402 0001876 108.0112 252.1221 13.12441984232689
ONEWEB-0135             
1 47281U 20100Z   25289.06069735  .00000378  00000+0  10164-2 0  9998
2 47281  87.8960  39.1710 0001921 114.0547 246.0783 13.12442969232714
ONEWEB-0136             
1 47282U 20100AA  25289.00392330  .00000210  00000+0  54935-3 0  9993
2 47282  87.8970  39.1512 0002231 109.9697 250.1672 13.12442816232635
ONEWEB-0137             
1 47283U 20100AB  25289.03797133 -.00000346  00000+0 -99610-3 0  9998
2 47283  87.8962  39.1500 0001820  95.2840 264.8497 13.12444632232549
ONEWEB-0138             
1 47284U 20100AC  25288.78817845 -.00000219  00000+0 -64546-3 0  9992
2 47284  87.8961  39.2094 0001879 104.9828 255.1509 13.12441255232596
ONEWEB-0139             
1 47285U 20100AD  25288.75101409  .00000163  00000+0  41705-3 0  9990
2 47285  87.8956  39.2069 0001733 101.6685 258.4638 13.12445721232666
ONEWEB-0140             
1 47286U 20100AE  25289.01040707  .00000015  00000+0  62027-5 0  9992
2 47286  87.8962  39.1409 0001826 103.9538 256.1794 13.12441646232666
ONEWEB-0141             
1 47287U 20100AF  25288.59823235  .00000435  00000+0  11720-2 0  9997
2 47287  87.8948  39.2358 0002146  87.2000 272.9374 13.12473886232592
